OBJECT_NAME,OBJECT_ID,EPOCH,MEAN_MOTION,ECCENTRICITY,INCLINATION,RA_OF_ASC_NODE,ARG_OF_PERICENTER,MEAN_ANOMALY,EPHEMERIS_TYPE,CLASSIFICATION_TYPE,NORAD_CAT_ID,ELEMENT_SET_NO,REV_AT_EPOCH,BSTAR,MEAN_MOTION_DOT,MEAN_MOTION_DDOT
AAUSAT 3,2013-009B,2026-05-12T06:07:06.002112,14.39893773,.00105939,98.3702,316.8684,325.5790,34.4712,0,U,39087,999,69200,.14955583E-3,.427E-5,0
STRAND-1,2013-009E,2026-05-12T06:29:01.170816,14.37141449,.00082394,98.3916,313.3903,346.6672,13.4296,0,U,39090,999,69190,.75038113E-4,.18E-5,0
BRITE-AUSTRIA,2013-009F,2026-05-12T06:25:21.829728,14.36527334,.00099851,98.3988,312.5942,354.5452,5.5624,0,U,39091,999,69189,.5163908E-4,.109E-5,0
UNIBRITE,2013-009G,2026-05-12T01:37:27.552000,14.36398397,.00088546,98.4027,312.5013,352.5016,7.6037,0,U,39092,999,69180,.57523183E-4,.126E-5,0
AIST-2 (RS43),2013-015D,2026-05-12T06:42:52.564320,15.25899039,.00204179,64.8708,14.7085,245.9987,113.9006,0,U,39133,999,71842,.13450633E-3,.3269E-4,0
GAOFEN-1,2013-018A,2026-05-12T06:45:52.809408,14.76534249,.00176844,97.9100,205.0764,26.2722,333.9381,0,U,39150,999,70294,.10209882E-4,.2E-6,0
NEE-01 PEGASO,2013-018B,2026-05-11T21:17:39.283872,14.93480823,.0011183,98.1175,274.8535,285.1037,74.8945,0,U,39151,999,70528,.17871E-3,.182E-4,0
TURKSAT-3USAT,2013-018C,2026-05-12T05:41:44.017728,14.96190552,.0011421,97.7908,223.2217,215.6006,144.4455,0,U,39152,999,70571,.14759983E-3,.1606E-4,0
CUBEBUG-1 (CAPITAN BETO),2013-018D,2026-05-12T05:04:59.186496,14.97074073,.00103915,98.1635,290.5658,267.7656,92.2375,0,U,39153,999,70568,.11480772E-3,.126E-4,0
PROBA-V,2013-021A,2026-05-12T04:53:05.544960,14.23589123,.00031699,98.3570,112.5910,227.6316,132.4595,0,U,39159,999,67599,.36757981E-4,.43E-6,0
ESTCUBE 1,2013-021C,2026-05-12T02:58:50.011680,14.81287187,.00095106,97.7316,187.5745,127.5994,232.6084,0,U,39161,999,69968,.12322359E-3,.911E-5,0
ARIRANG-5 (KOMPSAT-5),2013-042A,2026-05-11T23:38:59.723808,15.04563439,.00018387,97.6223,319.1940,258.8276,101.2743,0,U,39227,999,69841,.10097258E-3,.1355E-4,0
GONETS-M 5,2013-048A,2026-05-12T07:03:07.221312,12.42891044,.0015847,82.4860,5.7615,294.0353,65.9068,0,U,39249,999,57442,.50665493E-3,.8E-6,0
GONETS-M 7,2013-048C,2026-05-12T06:10:43.508928,12.42913288,.00166753,82.4927,8.6871,295.3512,64.5840,0,U,39251,999,57437,-.73867199E-3,-.93E-6,0
FENGYUN 3C,2013-052A,2026-05-12T06:47:20.376672,14.15746465,.00156145,98.4963,107.8113,124.0178,236.2482,0,U,39260,999,65348,.41491942E-4,.4E-6,0
CASSIOPE,2013-055A,2026-05-12T05:45:19.645344,15.22549491,.03011497,80.9127,110.2718,182.9148,177.0347,0,U,39265,999,66219,.23291183E-3,.2043E-3,-.624359E-6
APRIZESAT 7,2013-066A,2026-05-12T03:04:35.694624,14.91479588,.0035139,97.7686,85.8738,333.3196,26.6213,0,U,39416,999,67585,.79452437E-4,.746E-5,0
ZACUBE-1 (TSHEPISOSAT),2013-066B,2026-05-12T03:26:32.725248,15.00904333,.00419841,97.8118,94.2849,14.4700,345.7715,0,U,39417,999,67532,.23293779E-3,.2957E-4,0
APRIZESAT 8,2013-066K,2026-05-12T06:58:04.792800,14.87572956,.00470956,97.8201,80.2666,45.4366,315.0680,0,U,39425,999,67433,.8483651E-4,.729E-5,0
CINEMA-3 (KHUSAT-2),2013-066L,2026-05-12T04:48:09.337248,14.78212360,.00893375,97.8419,45.3325,329.8623,29.7464,0,U,39426,999,66913,.13040153E-3,.954E-5,0
TRITON-1,2013-066M,2026-05-12T07:11:40.892640,14.81544980,.00902281,97.8260,42.9240,352.3958,7.5880,0,U,39427,999,66877,.22189416E-3,.181E-4,0
DELFI-N3XT,2013-066N,2026-05-12T05:35:21.773760,14.94666266,.00742527,97.8339,52.5877,327.6223,32.0451,0,U,39428,999,66925,.39462204E-3,.4455E-4,0
GOMX-1,2013-066Q,2026-05-12T07:09:47.087424,14.69315493,.01283867,97.6514,335.0241,192.1438,167.6667,0,U,39430,999,66464,.1787583E-3,.1145E-4,0
BRITE-PL1 (LEM),2013-066R,2026-05-12T06:34:35.614848,14.51323618,.01914568,97.7918,247.1935,122.7916,239.1886,0,U,39431,999,65872,.1241195E-3,.58E-5,0
ICUBE-1,2013-066S,2026-05-11T21:58:11.619264,15.24890789,.001905,97.5683,117.1624,98.5530,261.7867,0,U,39432,999,67888,.34625E-3,.8583E-4,0
VELOX-PII,2013-066Y,2026-05-11T20:14:39.499872,14.92874155,.0054635,97.8723,83.1788,102.9449,257.7879,0,U,39438,999,67241,.12873402E-3,.1312E-4,0
CUBEBUG-2 (LO-74),2013-066AA,2026-05-12T02:06:25.587360,14.93488953,.00588061,97.8889,80.9276,145.6360,214.8685,0,U,39440,999,67160,.18206455E-3,.192E-4,0
NEE-02 KRYSAOR,2013-066AB,2026-05-12T06:21:11.313792,14.86481886,.00660017,97.8881,71.7440,186.2135,173.8270,0,U,39441,999,67086,.11292534E-3,.979E-5,0
FUNCUBE-1 (AO-73),2013-066AE,2026-05-12T06:06:35.000064,15.09015544,.00354968,97.8259,102.9681,328.8307,31.0815,0,U,39444,999,67424,.31892281E-3,.5049E-4,0
HINCUBE,2013-066AF,2026-05-12T04:32:40.908768,15.07823149,.00325271,97.7946,100.1902,336.2796,23.6930,0,U,39445,999,67410,.34009666E-3,.5203E-4,0
UWE-3,2013-066AG,2026-05-11T20:24:49.072608,14.96716038,.00509509,97.8679,87.6953,80.9232,279.7749,0,U,39446,999,67214,.17104713E-3,.1943E-4,0
SMDC ONE 2.4,2013-072H,2026-05-12T05:40:06.198240,15.17498023,.01397977,120.4877,213.3690,340.0803,19.4850,0,U,39469,999,11237,.23239059E-3,.5626E-4,0
CP8 (IPEX),2013-072K,2026-05-12T02:26:13.990848,15.07653149,.01593233,120.4639,161.4245,323.4841,35.5453,0,U,39471,999,10979,.22306477E-3,.4187E-4,0
COSMOS 2488 (RODNIK-S 7),2013-076A,2026-05-12T07:08:33.478080,12.42904364,.00199211,82.4861,191.0541,170.2664,189.8805,0,U,39483,999,56143,-.30362755E-3,-.32E-6,0
COSMOS 2489 (RODNIK-S 8),2013-076B,2026-05-12T06:31:45.901920,12.42878962,.00217594,82.4898,192.4367,170.5172,189.6322,0,U,39484,999,56148,-.584703E-3,-.71E-6,0
COSMOS 2490 (RODNIK-S 9),2013-076C,2026-05-12T05:51:11.576736,12.42876357,.00215187,82.4844,190.5377,186.2427,173.8388,0,U,39485,999,56141,-.49959227E-3,-.59E-6,0
AIST-1 (RS41),2013-078C,2026-05-12T05:48:58.226976,14.95970457,.00178762,82.4142,305.6991,41.6955,318.5625,0,U,39492,999,66987,.12634639E-3,.1446E-4,0
KAZEOSAT 1,2014-024A,2026-05-12T06:55:19.321248,14.42065033,.00015885,98.3209,205.6260,92.2783,267.8589,0,U,39731,999,63338,.2175072E-4,.29E-6,0
COSMOS 2496 (RODNIK-S 10),2014-028A,2026-05-12T06:46:01.947072,12.42876653,.00204151,82.4426,131.2216,153.9135,206.2978,0,U,39761,999,54305,-.39287999E-3,-.45E-6,0
COSMOS 2497 (RODNIK-S 11),2014-028B,2026-05-12T06:11:05.417376,12.42892581,.00210756,82.4476,132.9128,149.1047,211.1278,0,U,39762,999,54305,-.44623638E-4,.4E-7,0
COSMOS 2498 (RODNIK-S 12),2014-028C,2026-05-12T07:38:19.758336,12.42979158,.00218095,82.4435,131.3775,148.7718,211.4663,0,U,39763,999,54309,.10161396E-3,.24E-6,0
COSMOS 2499 (RS47),2014-028E,2026-05-12T05:58:35.486976,12.82902639,.02325716,82.4472,276.6789,86.0952,276.6704,0,U,39765,999,56041,.33333709E-4,.22E-6,0
HODOYOSHI-4,2014-033B,2026-05-12T06:16:17.674752,14.88040390,.0025045,97.5461,318.8206,66.2151,294.1689,0,U,40011,999,64346,.73003044E-4,.622E-5,0
UNISAT-6,2014-033C,2026-05-12T05:27:10.743552,14.88030458,.00451863,97.7835,285.5873,185.2857,174.7889,0,U,40012,999,64081,.23802009E-3,.2171E-4,0
DEIMOS-2,2014-033D,2026-05-12T06:37:36.016320,14.93624812,.00025505,97.5879,8.0200,85.1666,274.9846,0,U,40013,999,63236,.13904661E-3,.1414E-4,0
BUGSAT-1 (TITA),2014-033E,2026-05-12T05:55:52.317120,15.15209310,.00269869,98.0408,222.7076,305.0418,54.8281,0,U,40014,999,65039,.12975268E-3,.2381E-4,0
SAUDISAT 4,2014-033G,2026-05-12T03:20:14.443584,14.79489895,.00446459,97.7535,279.5315,188.8785,171.1642,0,U,40016,999,64074,.70198943E-4,.481E-5,0
APRIZESAT 9,2014-033J,2026-05-12T07:14:26.726208,14.74171286,.00651658,97.9007,266.3878,316.5683,43.0402,0,U,40018,999,63827,.48869314E-4,.28E-5,0
BRITE-CA1 (TORONTO),2014-033L,2026-05-12T07:09:53.702208,14.72626838,.00793359,97.9687,261.8998,32.7324,327.8764,0,U,40020,999,63693,.76566085E-4,.459E-5,0
DUCHIFAT-1,2014-033M,2026-05-12T03:00:31.313088,15.58226206,.00058006,98.0509,186.4226,189.1310,170.9839,0,U,40021,999,65012,.67126926E-3,.5087E-3,0
NANOSATC-BR1,2014-033Q,2026-05-12T01:24:12.152736,15.30297181,.00019896,98.0758,161.2762,331.9616,28.1515,0,U,40024,999,64845,.34112784E-3,.9914E-4,0
QB50P1,2014-033R,2026-05-12T06:57:37.442016,15.17692585,.0008445,98.0983,140.9348,1.2823,358.8429,0,U,40025,999,64758,.27197E-3,.5409E-4,0
DTUSAT-2,2014-033W,2026-05-12T05:40:09.450336,15.14538949,.00079891,98.0868,127.6967,11.8322,348.3095,0,U,40030,999,64724,.22197744E-3,.4019E-4,0
QB50P2,2014-033Y,2026-05-12T05:36:46.512288,15.14689804,.0005855,98.0756,126.8919,306.0216,54.0472,0,U,40032,999,64722,.20989362E-3,.3811E-4,0
PERSEUS-M1,2014-033AF,2026-05-12T02:35:25.234080,14.95506048,.0012865,97.9626,75.6560,61.0721,299.1788,0,U,40039,999,64524,.10866325E-3,.1144E-4,0
POLYITAN-1,2014-033AJ,2026-05-12T00:16:46.555680,15.31997831,.00053628,98.0977,154.8860,270.7833,89.2792,0,U,40042,999,64805,.37565615E-3,.11526E-3,0
TIGRISAT,2014-033AK,2026-05-12T03:15:48.859488,14.85004931,.00492116,97.7789,282.9872,191.3333,168.6778,0,U,40043,999,64027,.17607628E-3,.1479E-4,0
AISAT,2014-034B,2026-05-12T06:38:27.153888,15.08120187,.00090232,98.2415,42.0851,356.5757,3.5406,0,U,40054,999,64179,.40204291E-3,.614E-4,0
CANX-4,2014-034C,2026-05-12T01:53:45.708000,14.81196018,.00138569,98.3172,6.0596,123.8085,236.4448,0,U,40055,999,63918,.73066924E-4,.512E-5,0
CANX-5,2014-034D,2026-05-12T01:52:06.327264,14.81213017,.00138483,98.3173,6.0997,124.0358,236.2170,0,U,40056,999,62999,.72526875E-4,.508E-5,0
VELOX-I,2014-034E,2026-05-12T07:33:41.044896,14.97536983,.00082592,98.2560,35.2891,35.9620,324.2155,0,U,40057,999,64123,.13934556E-3,.1561E-4,0
GONETS-M 10,2014-036C,2026-05-12T06:01:13.789920,12.42944404,.0021147,82.5114,330.0029,218.9669,140.9888,0,U,40063,999,53778,.14426171E-3,.3E-6,0
METEOR-M 2,2014-037A,2026-05-12T05:55:00.443424,14.21452316,.0006474,98.5098,109.2627,131.9395,228.2336,0,U,40069,999,61421,.11636852E-3,.212E-5,0
DX1,2014-037C,2026-05-12T07:08:24.881280,14.89870504,.00080305,98.3841,91.8306,38.0180,322.1601,0,U,40071,999,64076,.14248082E-3,.1307E-4,0
UKUBE-1,2014-037F,2026-05-12T06:18:19.599840,15.12967540,.00004702,98.4248,131.7795,55.3435,304.7837,0,U,40074,999,64312,.28307358E-3,.4915E-4,0
